NORAD_CAT_ID,OBJECT_NAME,OBJECT_TYPE,EPOCH,MEAN_MOTION,ECCENTRICITY,INCLINATION,RA_OF_ASC_NODE,ARG_OF_PERICENTER,MEAN_ANOMALY,BSTAR,MEAN_MOTION_DOT,MEAN_MOTION_DDOT,TLE_LINE0,TLE_LINE1,TLE_LINE2,SEMIMAJOR_AXIS,PERIOD,APOGEE,PERIGEE,DECAYED
53749.0,STARLINK-4680,PAYLOAD,2023-05-31 15:14:16,15.08839103,0.0001165,53.2154,132.0683,87.4686,272.644,7.1924e-06,-1.73e-06,0.0,0 STARLINK-4680,1 53749U 22107BB  23151.63490899 -.00000173  00000-0  71924-5 0  9990,2 53749  53.2154 132.0683 0001165  87.4686 272.6440 15.08839103 41654,6917.883,95.438,540.554,538.942,0.0
53749.0,STARLINK-4680,PAYLOAD,2023-06-01 05:32:44,15.08840613,0.0001155,53.2153,129.3923,88.4661,271.6463,3.93e-05,3.38e-06,0.0,0 STARLINK-4680,1 53749U 22107BB  23152.23106748  .00000338  00000-0  39300-4 0  9997,2 53749  53.2153 129.3923 0001155  88.4661 271.6463 15.08840613 41744,6917.879,95.438,540.543,538.945,0.0
53749.0,STARLINK-4680,PAYLOAD,2023-06-02 02:12:45,15.08835714,0.0001168,53.2151,125.5282,102.2703,257.842,3.3911e-05,2.52e-06,0.0,0 STARLINK-4680,1 53749U 22107BB  23153.09219169  .00000252  00000-0  33911-4 0  9991,2 53749  53.2151 125.5282 0001168 102.2703 257.8420 15.08835714 41097,6917.893,95.438,540.566,538.95,0.0
53749.0,STARLINK-4680,PAYLOAD,2023-06-02 05:23:31,15.08836503,0.0001158,53.2157,124.9332,97.0324,263.0799,5.3304e-05,5.61e-06,0.0,0 STARLINK-4680,1 53749U 22107BB  23153.22467102  .00000561  00000-0  53304-4 0  9999,2 53749  53.2157 124.9332 0001158  97.0324 263.0799 15.08836503 41894,6917.891,95.438,540.557,538.955,0.0
53749.0,STARLINK-4680,PAYLOAD,2023-06-03 03:38:56,15.08833495,0.0001241,53.2159,120.7711,102.1191,257.994,1.0138e-06,-2.72e-06,0.0,0 STARLINK-4680,1 53749U 22107BB  23154.15203782 -.00000272  00000-0  10138-5 0  9993,2 53749  53.2159 120.7711 0001241 102.1191 257.9940 15.08833495 41251,6917.9,95.438,540.624,538.907,0.0
53749.0,STARLINK-4680,PAYLOAD,2023-06-03 06:49:42,15.08834557,0.0001225,53.2156,120.176,103.3777,256.7352,6.4058e-06,-1.86e-06,0.0,0 STARLINK-4680,1 53749U 22107BB  23154.28451742 -.00000186  00000-0  64058-5 0  9992,2 53749  53.2156 120.1760 0001225 103.3777 256.7352 15.08834557 42054,6917.897,95.438,540.609,538.915,0.0
53749.0,STARLINK-4680,PAYLOAD,2023-06-04 05:05:06,15.08838895,0.0001267,53.2165,116.0095,93.5987,266.515,6.7768e-05,7.91e-06,0.0,0 STARLINK-4680,1 53749U 22107BB  23155.21187543  .00000791  00000-0  67768-4 0  9992,2 53749  53.2165 116.0095 0001267  93.5987 266.5150 15.08838895 41411,6917.884,95.438,540.625,538.872,0.0
53749.0,STARLINK-4680,PAYLOAD,2023-06-04 20:58:57,15.08836644,0.0001239,53.2163,113.0371,92.5917,267.5217,6.6118e-05,7.64e-06,0.0,0 STARLINK-4680,1 53749U 22107BB  23155.87427813  .00000764  00000-0  66118-4 0  9999,2 53749  53.2163 113.0371 0001239  92.5917 267.5217 15.08836644 42296,6917.891,95.438,540.613,538.899,0.0
53749.0,STARLINK-4680,PAYLOAD,2023-06-05 06:31:16,15.08841925,0.0001281,53.2162,111.2524,89.7955,270.3184,0.0001057,1.395e-05,0.0,0 STARLINK-4680,1 53749U 22107BB  23156.27171413  .00001395  00000-0  10570-3 0  9997,2 53749  53.2162 111.2524 0001281  89.7955 270.3184 15.08841925 41575,6917.875,95.437,540.626,538.853,0.0
53749.0,STARLINK-4680,PAYLOAD,2023-06-05 14:28:12,15.08825242,0.0001183,53.2149,109.7643,90.6472,269.4656,0.00015915,2.245e-05,0.0,0 STARLINK-4680,1 53749U 22107BB  23156.60292405  .00002245  00000-0  15915-3 0  9992,2 53749  53.2149 109.7643 0001183  90.6472 269.4656 15.08825242 42400,6917.925,95.438,540.609,538.972,0.0
53749.0,STARLINK-4680,PAYLOAD,2023-06-06 00:00:31,15.08837403,0.0001312,53.2156,107.9801,91.3651,268.7492,1.3589e-05,-7.2e-07,0.0,0 STARLINK-4680,1 53749U 22107BB  23157.00036113 -.00000072  00000-0  13589-4 0  9992,2 53749  53.2156 107.9801 0001312  91.3651 268.7492 15.08837403 41686,6917.888,95.438,540.661,538.846,0.0
53749.0,STARLINK-4680,PAYLOAD,2023-06-06 06:22:03,15.08839131,0.0001319,53.2157,106.7906,91.5344,268.58,2.718e-05,1.45e-06,0.0,0 STARLINK-4680,1 53749U 22107BB  23157.26531988  .00000145  00000-0  27180-4 0  9992,2 53749  53.2157 106.7906 0001319  91.5344 268.5800 15.08839131 42501,6917.883,95.438,540.661,538.836,0.0
53749.0,STARLINK-4680,PAYLOAD,2023-06-06 20:40:31,15.0884447,0.0001299,53.2157,104.1147,86.8138,273.3003,3.1378e-05,2.12e-06,0.0,0 STARLINK-4680,1 53749U 22107BB  23157.86147656  .00000212  00000-0  31378-4 0  9992,2 53749  53.2157 104.1147 0001299  86.8138 273.3003 15.08844470 42595,6917.867,95.437,540.63,538.833,0.0
53749.0,STARLINK-4680,PAYLOAD,2023-06-06 23:51:17,15.08846209,0.0001301,53.2156,103.52,86.6037,273.5104,4.634e-05,4.5e-06,0.0,0 STARLINK-4680,1 53749U 22107BB  23157.99395448  .00000450  00000-0  46340-4 0  9999,2 53749  53.2156 103.5200 0001301  86.6037 273.5104 15.08846209 41839,6917.861,95.437,540.626,538.826,0.0
53749.0,STARLINK-4680,PAYLOAD,2023-06-07 06:12:49,15.08849659,0.0001304,53.2158,102.3305,86.8063,273.3078,7.2238e-05,8.62e-06,0.0,0 STARLINK-4680,1 53749U 22107BB  23158.25891033  .00000862  00000-0  72238-4 0  9992,2 53749  53.2158 102.3305 0001304  86.8063 273.3078 15.08849659 42659,6917.851,95.437,540.618,538.814,0.0
53749.0,STARLINK-4680,PAYLOAD,2023-06-08 02:52:51,15.08836768,0.000122,53.2161,98.4657,88.9708,271.1424,4.5624e-05,4.38e-06,0.0,0 STARLINK-4680,1 53749U 22107BB  23159.12003984  .00000438  00000-0  45624-4 0  9997,2 53749  53.2161  98.4657 0001220  88.9708 271.1424 15.08836768 42001,6917.89,95.438,540.599,538.911,0.0
53749.0,STARLINK-4680,PAYLOAD,2023-06-09 12:15:57,15.08841003,0.0001166,53.2163,92.222,102.5244,257.5878,-3.2121e-05,-7.99e-06,0.0,0 STARLINK-4680,1 53749U 22107BB  23160.51108113 -.00000799  00000-0 -32121-4 0  9992,2 53749  53.2163  92.2220 0001166 102.5244 257.5878 15.08841003 42995,6917.877,95.437,540.549,538.936,0.0
53749.0,STARLINK-4680,PAYLOAD,2023-06-10 12:06:44,15.08836871,0.0001037,53.2157,87.7611,86.8986,273.2125,5.1536e-05,5.32e-06,0.0,0 STARLINK-4680,1 53749U 22107BB  23161.50468418  .00000532  00000-0  51536-4 0  9993,2 53749  53.2157  87.7611 0001037  86.8986 273.2125 15.08836871 43140,6917.89,95.438,540.472,539.038,0.0
53749.0,STARLINK-4680,PAYLOAD,2023-06-11 02:25:13,15.08836986,0.0001126,53.2168,85.0848,85.018,275.0941,4.9428e-05,4.99e-06,0.0,0 STARLINK-4680,1 53749U 22107BB  23162.10084677  .00000499  00000-0  49428-4 0  9990,2 53749  53.2168  85.0848 0001126  85.0180 275.0941 15.08836986 42457,6917.89,95.438,540.534,538.976,0.0
53749.0,STARLINK-4680,PAYLOAD,2023-06-11 13:32:54,15.08873878,0.0001573,53.216,83.0028,71.2437,288.8725,-0.00043538,-7.217e-05,0.0,0 STARLINK-4680,1 53749U 22107BB  23162.56452506 -.00007217  00000-0 -43538-3 0  9992,2 53749  53.2160  83.0028 0001573  71.2437 288.8725 15.08873878 43303,6917.777,95.435,540.73,538.554,0.0
53749.0,STARLINK-4680,PAYLOAD,2023-06-11 15:08:18,15.08821536,0.0001063,53.216,82.7056,82.0563,278.055,0.00020899,3.038e-05,0.0,0 STARLINK-4680,1 53749U 22107BB  23162.63077107  .00003038  00000-0  20899-3 0  9990,2 53749  53.2160  82.7056 0001063  82.0563 278.0550 15.08821536 42539,6917.937,95.439,540.537,539.066,0.0
53749.0,STARLINK-4680,PAYLOAD,2023-06-11 21:29:50,15.08871465,0.000158,53.2164,81.5163,72.9237,287.1928,-0.00042301,-7.02e-05,0.0,0 STARLINK-4680,1 53749U 22107BB  23162.89572067 -.00007020  00000-0 -42301-3 0  9992,2 53749  53.2164  81.5163 0001580  72.9237 287.1928 15.08871465 43356,6917.784,95.436,540.742,538.556,0.0
53749.0,STARLINK-4680,PAYLOAD,2023-06-12 03:51:23,15.08843365,0.0001091,53.216,80.3265,86.0275,274.0842,2.7812e-05,1.55e-06,0.0,0 STARLINK-4680,1 53749U 22107BB  23163.16068455  .00000155  00000-0  27812-4 0  9995,2 53749  53.2160  80.3265 0001091  86.0275 274.0842 15.08843365 42613,6917.87,95.437,540.49,538.98,0.0
53749.0,STARLINK-4680,PAYLOAD,2023-06-12 11:48:18,15.08839979,9.85e-05,53.2167,78.8418,82.4018,277.7086,5.2889e-05,5.54e-06,0.0,0 STARLINK-4680,1 53749U 22107BB  23163.49188589  .00000554  00000-0  52889-4 0  9997,2 53749  53.2167  78.8418 0000985  82.4018 277.7086 15.08839979 43446,6917.88,95.438,540.427,539.064,0.0
53749.0,STARLINK-4680,PAYLOAD,2023-06-13 00:31:24,15.08834417,9.98e-05,53.2165,76.4621,77.2682,282.8422,3.3518e-05,2.46e-06,0.0,0 STARLINK-4680,1 53749U 22107BB  23164.02181068  .00000246  00000-0  33518-4 0  9998,2 53749  53.2165  76.4621 0000998  77.2682 282.8422 15.08834417 42742,6917.897,95.438,540.453,539.072,0.0
53749.0,STARLINK-4680,PAYLOAD,2023-06-13 13:14:28,15.0884232,0.0001145,53.2162,74.0822,81.5673,278.5449,6.9446e-05,8.18e-06,0.0,0 STARLINK-4680,1 53749U 22107BB  23164.55172450  .00000818  00000-0  69446-4 0  9995,2 53749  53.2162  74.0822 0001145  81.5673 278.5449 15.08842320 43608,6917.873,95.437,540.53,538.946,0.0
53749.0,STARLINK-4680,PAYLOAD,2023-06-14 03:32:56,15.08866539,0.0001213,53.2161,71.4056,83.4617,276.6514,-0.00014252,-2.557e-05,0.0,0 STARLINK-4680,1 53749U 22107BB  23165.14787442 -.00002557  00000-0 -14252-3 0  9992,2 53749  53.2161  71.4056 0001213  83.4617 276.6514 15.08866539 42915,6917.799,95.436,540.503,538.825,0.0
53749.0,STARLINK-4680,PAYLOAD,2023-06-14 17:51:25,15.08835799,0.0001547,53.2171,68.7247,106.5139,253.6023,-3.1168e-06,-3.38e-06,0.0,0 STARLINK-4680,1 53749U 22107BB  23165.74404918 -.00000338  00000-0 -31168-5 0  9994,2 53749  53.2171  68.7247 0001547 106.5139 253.6023 15.08835799 43008,6917.893,95.438,540.828,538.688,0.0
53749.0,STARLINK-4680,PAYLOAD,2023-06-14 21:02:12,15.0883107,0.000145,53.2175,68.1309,106.2368,253.8784,-4.1197e-05,-9.43e-06,0.0,0 STARLINK-4680,1 53749U 22107BB  23165.87653337 -.00000943  00000-0 -41197-4 0  9993,2 53749  53.2175  68.1309 0001450 106.2368 253.8784 15.08831070 43025,6917.908,95.438,540.776,538.77,0.0
53749.0,STARLINK-4680,PAYLOAD,2023-06-15 17:42:12,15.08838987,0.0001146,53.217,64.2711,77.6812,282.4308,-1.139e-05,-4.69e-06,0.0,0 STARLINK-4680,1 53749U 22107BB  23166.73764984 -.00000469  00000-0 -11390-4 0  9995,2 53749  53.2170  64.2711 0001146  77.6812 282.4308 15.08838987 43159,6917.883,95.438,540.541,538.956,0.0
